{
  "norad_id": 57967,
  "name": "STARLINK-30528",
  "history": [
    {
      "epoch": "2026-03-28T18:02:08.838816Z",
      "apogee_km": 483.9195985092965,
      "perigee_km": 482.1324027708897,
      "latitude_deg": 4.284546980550622e-05,
      "longitude_deg": 131.47417790753727,
      "height_km": 482.816669876215,
      "semi_major_axis_km": 6861.163000640093,
      "eccentricity": 0.00013024,
      "inclination_deg": 43.0,
      "raan_deg": 228.1784,
      "arg_perigee_deg": 269.0987,
      "mean_anomaly_deg": 90.9716,
      "mean_motion_rev_day": 15.27587713
    },
    {
      "epoch": "2026-03-29T01:52:56.659584Z",
      "apogee_km": 483.8706501667875,
      "perigee_km": 482.3008024070132,
      "latitude_deg": -3.275954525924532e-06,
      "longitude_deg": 11.606426360162862,
      "height_km": 482.5532493148064,
      "semi_major_axis_km": 6861.2227262869,
      "eccentricity": 0.0001144,
      "inclination_deg": 43.0013,
      "raan_deg": 226.3322,
      "arg_perigee_deg": 293.1887,
      "mean_anomaly_deg": 66.8844,
      "mean_motion_rev_day": 15.27567767
    },
    {
      "epoch": "2026-03-30T01:25:17.758848Z",
      "apogee_km": 483.7890568316252,
      "perigee_km": 482.40171564312914,
      "latitude_deg": -6.821593295609118e-06,
      "longitude_deg": 12.01258915889471,
      "height_km": 482.6822218134285,
      "semi_major_axis_km": 6861.232386237377,
      "eccentricity": 0.0001011,
      "inclination_deg": 42.9996,
      "raan_deg": 220.793,
      "arg_perigee_deg": 285.8525,
      "mean_anomaly_deg": 74.2215,
      "mean_motion_rev_day": 15.27564541
    },
    {
      "epoch": "2026-03-30T01:25:17.759712Z",
      "apogee_km": 483.789194056274,
      "perigee_km": 482.4015784184812,
      "latitude_deg": -5.293934372079202e-06,
      "longitude_deg": 12.012587178199828,
      "height_km": 482.68218433257897,
      "semi_major_axis_km": 6861.232386237377,
      "eccentricity": 0.00010112,
      "inclination_deg": 42.9996,
      "raan_deg": 220.793,
      "arg_perigee_deg": 285.8525,
      "mean_anomaly_deg": 74.2215,
      "mean_motion_rev_day": 15.27564541
    },
    {
      "epoch": "2026-03-30T15:32:41.191008Z",
      "apogee_km": 484.3328358417466,
      "perigee_km": 481.706247894389,
      "latitude_deg": -7.500728570581433e-06,
      "longitude_deg": 156.25953690372774,
      "height_km": 482.4271066107379,
      "semi_major_axis_km": 6861.1565418680675,
      "eccentricity": 0.00019141,
      "inclination_deg": 43.0027,
      "raan_deg": 217.4676,
      "arg_perigee_deg": 286.3564,
      "mean_anomaly_deg": 73.7077,
      "mean_motion_rev_day": 15.2758987
    },
    {
      "epoch": "2026-03-30T20:15:08.533728Z",
      "apogee_km": 483.9605170822824,
      "perigee_km": 481.95886073425936,
      "latitude_deg": 4.290689607708732e-05,
      "longitude_deg": 84.3469288181174,
      "height_km": 482.5208814437388,
      "semi_major_axis_km": 6861.09668890827,
      "eccentricity": 0.00014587,
      "inclination_deg": 43.0021,
      "raan_deg": 216.3622,
      "arg_perigee_deg": 282.4512,
      "mean_anomaly_deg": 77.6177,
      "mean_motion_rev_day": 15.27609859
    },
    {
      "epoch": "2026-03-31T15:05:01.951584Z",
      "apogee_km": 484.1070941582602,
      "perigee_km": 481.9362235585977,
      "latitude_deg": -2.7274529886798776e-05,
      "longitude_deg": 156.66819821316702,
      "height_km": 482.63402953001327,
      "semi_major_axis_km": 6861.158658858429,
      "eccentricity": 0.0001582,
      "inclination_deg": 43.0011,
      "raan_deg": 211.9295,
      "arg_perigee_deg": 278.7229,
      "mean_anomaly_deg": 81.3443,
      "mean_motion_rev_day": 15.27589163
    },
    {
      "epoch": "2026-04-01T14:37:23.589984Z",
      "apogee_km": 483.6628760766789,
      "perigee_km": 482.4923528634499,
      "latitude_deg": 1.5422822871893338e-05,
      "longitude_deg": 157.07455851227007,
      "height_km": 482.6523685879655,
      "semi_major_axis_km": 6861.214614470064,
      "eccentricity": 8.53e-05,
      "inclination_deg": 42.9999,
      "raan_deg": 206.3927,
      "arg_perigee_deg": 290.1326,
      "mean_anomaly_deg": 69.9434,
      "mean_motion_rev_day": 15.27570476
    },
    {
      "epoch": "2026-04-02T14:09:44.633952Z",
      "apogee_km": 483.32892605543293,
      "perigee_km": 482.7886754980791,
      "latitude_deg": -9.668568326809277e-06,
      "longitude_deg": 157.4854297233175,
      "height_km": 482.92496952328037,
      "semi_major_axis_km": 6861.195800776755,
      "eccentricity": 3.937e-05,
      "inclination_deg": 43.0044,
      "raan_deg": 200.858,
      "arg_perigee_deg": 250.5579,
      "mean_anomaly_deg": 109.523,
      "mean_motion_rev_day": 15.27576759
    },
    {
      "epoch": "2026-04-03T15:16:14.206656Z",
      "apogee_km": 483.6630365805577,
      "perigee_km": 482.3443253416772,
      "latitude_deg": -5.9836589465271795e-05,
      "longitude_deg": 133.91969913080158,
      "height_km": 482.57663739369633,
      "semi_major_axis_km": 6861.140680961117,
      "eccentricity": 9.61e-05,
      "inclination_deg": 43.003,
      "raan_deg": 194.9467,
      "arg_perigee_deg": 287.9948,
      "mean_anomaly_deg": 72.0798,
      "mean_motion_rev_day": 15.27595167
    },
    {
      "epoch": "2026-04-04T14:48:35.153856Z",
      "apogee_km": 483.8776154510415,
      "perigee_km": 482.1966277912434,
      "latitude_deg": -1.4518637904845263e-05,
      "longitude_deg": 134.32464821627767,
      "height_km": 482.79662027674726,
      "semi_major_axis_km": 6861.174121621142,
      "eccentricity": 0.0001225,
      "inclination_deg": 42.9978,
      "raan_deg": 189.4056,
      "arg_perigee_deg": 271.1463,
      "mean_anomaly_deg": 88.9248,
      "mean_motion_rev_day": 15.27583999
    },
    {
      "epoch": "2026-04-05T14:20:58.063200Z",
      "apogee_km": 483.75332694407734,
      "perigee_km": 482.52515849663087,
      "latitude_deg": 1.0747165137960766e-06,
      "longitude_deg": 134.72506680632873,
      "height_km": 482.72573029951195,
      "semi_major_axis_km": 6861.276242720353,
      "eccentricity": 8.95e-05,
      "inclination_deg": 42.999,
      "raan_deg": 183.8682,
      "arg_perigee_deg": 287.9897,
      "mean_anomaly_deg": 72.0857,
      "mean_motion_rev_day": 15.27549895
    },
    {
      "epoch": "2026-04-06T06:02:31.150752Z",
      "apogee_km": 484.17955979016824,
      "perigee_km": 481.94747403800557,
      "latitude_deg": 2.6257083258858412e-05,
      "longitude_deg": -105.00464155546138,
      "height_km": 482.659101652798,
      "semi_major_axis_km": 6861.200516914087,
      "eccentricity": 0.00016266,
      "inclination_deg": 42.9988,
      "raan_deg": 180.1708,
      "arg_perigee_deg": 279.3425,
      "mean_anomaly_deg": 80.7243,
      "mean_motion_rev_day": 15.27575184
    },
    {
      "epoch": "2026-04-07T14:59:49.803072Z",
      "apogee_km": 484.1327366388905,
      "perigee_km": 482.1361066551917,
      "latitude_deg": -2.74549719229057e-05,
      "longitude_deg": 111.56395827340248,
      "height_km": 482.7051787526493,
      "semi_major_axis_km": 6861.271421647041,
      "eccentricity": 0.0001455,
      "inclination_deg": 42.9999,
      "raan_deg": 172.4206,
      "arg_perigee_deg": 281.9077,
      "mean_anomaly_deg": 78.1611,
      "mean_motion_rev_day": 15.27551505
    },
    {
      "epoch": "2026-04-07T14:59:49.803936Z",
      "apogee_km": 484.13259941346314,
      "perigee_km": 482.13624388062,
      "latitude_deg": -2.8993963068411815e-05,
      "longitude_deg": 111.56395302229214,
      "height_km": 482.70520706319024,
      "semi_major_axis_km": 6861.271421647041,
      "eccentricity": 0.00014548,
      "inclination_deg": 42.9999,
      "raan_deg": 172.4206,
      "arg_perigee_deg": 281.9077,
      "mean_anomaly_deg": 78.1611,
      "mean_motion_rev_day": 15.27551505
    },
    {
      "epoch": "2026-04-08T05:07:13.923840Z",
      "apogee_km": 484.45240533404376,
      "perigee_km": 481.71505271199294,
      "latitude_deg": -1.6856718418338063e-05,
      "longitude_deg": -104.19046144720171,
      "height_km": 482.6719812131726,
      "semi_major_axis_km": 6861.220729023018,
      "eccentricity": 0.00019948,
      "inclination_deg": 43.0048,
      "raan_deg": 169.0967,
      "arg_perigee_deg": 277.9571,
      "mean_anomaly_deg": 82.1054,
      "mean_motion_rev_day": 15.27568434
    },
    {
      "epoch": "2026-04-09T10:56:10.492800Z",
      "apogee_km": 483.90809270540467,
      "perigee_km": 482.00839265461127,
      "latitude_deg": 1.710066525355198e-05,
      "longitude_deg": 160.33417916008864,
      "height_km": 482.64194563647226,
      "semi_major_axis_km": 6861.095242680008,
      "eccentricity": 0.00013844,
      "inclination_deg": 43.0023,
      "raan_deg": 162.0815,
      "arg_perigee_deg": 275.6337,
      "mean_anomaly_deg": 84.4357,
      "mean_motion_rev_day": 15.27610342
    },
    {
      "epoch": "2026-04-10T04:11:53.504448Z",
      "apogee_km": 484.6113143214079,
      "perigee_km": 481.3987903896532,
      "latitude_deg": 9.79681846481646e-06,
      "longitude_deg": -103.36536882989444,
      "height_km": 482.3803066080316,
      "semi_major_axis_km": 6861.14205235553,
      "eccentricity": 0.00023411,
      "inclination_deg": 43.0027,
      "raan_deg": 158.0201,
      "arg_perigee_deg": 284.5108,
      "mean_anomaly_deg": 75.5484,
      "mean_motion_rev_day": 15.27594709
    },
    {
      "epoch": "2026-04-11T10:00:51.983712Z",
      "apogee_km": 484.0288086503442,
      "perigee_km": 482.0774861724203,
      "latitude_deg": 1.3196370892460245e-05,
      "longitude_deg": 161.14895893839685,
      "height_km": 482.78775916701716,
      "semi_major_axis_km": 6861.190147411382,
      "eccentricity": 0.0001422,
      "inclination_deg": 43.0011,
      "raan_deg": 151.0026,
      "arg_perigee_deg": 272.481,
      "mean_anomaly_deg": 87.5879,
      "mean_motion_rev_day": 15.27578647
    }
  ]
}